[{"OBJECT_NAME":"CUTE-1.7+APD II (CO-65)","OBJECT_ID":"2008-021C","EPOCH":"2026-03-09T21:54:04.726080","MEAN_MOTION":15.08376872,"ECCENTRICITY":0.00096053,"INCLINATION":97.8207,"RA_OF_ASC_NODE":48.3884,"ARG_OF_PERICENTER":18.7003,"MEAN_ANOMALY":341.4575,"EPHEMERIS_TYPE":0,"CLASSIFICATION_TYPE":"U","NORAD_CAT_ID":32785,"ELEMENT_SET_NO":999,"REV_AT_EPOCH":97022,"BSTAR":0.00047295391,"MEAN_MOTION_DOT":7.295e-5,"MEAN_MOTION_DDOT":0},{"OBJECT_NAME":"STARLINK-5361","OBJECT_ID":"2023-090AT","EPOCH":"2026-03-09T22:00:01.999584","MEAN_MOTION":15.08471495,"ECCENTRICITY":7.588e-5,"INCLINATION":43.0006,"RA_OF_ASC_NODE":260.3821,"ARG_OF_PERICENTER":315.6558,"MEAN_ANOMALY":190.5988,"EPHEMERIS_TYPE":0,"CLASSIFICATION_TYPE":"U","NORAD_CAT_ID":57142,"ELEMENT_SET_NO":999,"REV_AT_EPOCH":577,"BSTAR":0.0068561915,"MEAN_MOTION_DOT":0.00110162,"MEAN_MOTION_DDOT":0}]
